NORAD_CAT_ID,OBJECT_NAME,OBJECT_TYPE,EPOCH,MEAN_MOTION,ECCENTRICITY,INCLINATION,RA_OF_ASC_NODE,ARG_OF_PERICENTER,MEAN_ANOMALY,BSTAR,MEAN_MOTION_DOT,MEAN_MOTION_DDOT,TLE_LINE0,TLE_LINE1,TLE_LINE2,SEMIMAJOR_AXIS,PERIOD,APOGEE,PERIGEE,DECAYED
53546.0,STARLINK-4477,PAYLOAD,2022-11-14 22:00:00,15.08836701,0.000145,53.2171,89.0172,64.0164,17.1104,5.9127e-05,6.53e-06,0.0,0 STARLINK-4477,1 53546U 22101V   22318.91667824  .00000653  00000-0  59127-4 0  9990,2 53546  53.2171  89.0172 0001450  64.0164  17.1104 15.08836701  1309,6917.89,95.438,540.759,538.752,0.0
53546.0,STARLINK-4477,PAYLOAD,2022-11-15 14:00:01,15.08825632,0.0001635,53.2144,86.0195,66.2529,38.0068,-0.0035141999999999,-0.00055762,0.0,0 STARLINK-4477,1 53546U 22101V   22319.58334491 -.00055762  00000-0 -35142-2 0  9997,2 53546  53.2144  86.0195 0001635  66.2529  38.0068 15.08825632 13760,6917.924,95.438,540.92,538.658,0.0
53546.0,STARLINK-4477,PAYLOAD,2022-11-15 22:00:00,15.08816896,0.000152,53.2144,84.5232,58.1889,57.6169,0.0013399,0.00021087,0.0,0 STARLINK-4477,1 53546U 22101V   22319.91667824  .00021087  00000-0  13399-2 0  9994,2 53546  53.2144  84.5232 0001520  58.1889  57.6169 15.08816896 13814,6917.951,95.439,540.868,538.764,0.0
53546.0,STARLINK-4477,PAYLOAD,2022-11-16 14:00:01,15.08752925,0.0001501,53.2161,81.5324,64.9089,74.1422,0.0168,0.00277116,0.0,0 STARLINK-4477,1 53546U 22101V   22320.58335648  .00277116  00000-0  16800-1 0  9990,2 53546  53.2161  81.5324 0001501  64.9089  74.1422 15.08752925  1307,6918.147,95.443,541.05,538.9730000000002,0.0
53546.0,STARLINK-4477,PAYLOAD,2022-11-16 20:00:01,15.09036141,0.000166,53.2163,80.4121,63.7775,353.8565,-0.014523,-0.00225482,0.0,0 STARLINK-4477,1 53546U 22101V   22320.83334491 -.00225482  00000-0 -14523-1 0  9994,2 53546  53.2163  80.4121 0001660  63.7775 353.8565 15.09036141 13952,6917.281,95.425,540.294,537.998,0.0
53546.0,STARLINK-4477,PAYLOAD,2022-11-16 22:00:08,15.09045552,0.0001663,53.2164,80.0375,69.4724,81.5339,-0.019439,-0.00298738,0.0,0 STARLINK-4477,1 53546U 22101V   22320.91675926 -.00298738  00000-0 -19439-1 0  9999,2 53546  53.2164  80.0375 0001663  69.4724  81.5339 15.09045552  1306,6917.252,95.425,540.268,537.967,0.0
53546.0,STARLINK-4477,PAYLOAD,2022-11-17 06:00:00,15.08921151,0.0001452,53.2163,78.5391,63.0785,99.1013,-0.0030968,-0.00049345,0.0,0 STARLINK-4477,1 53546U 22101V   22321.25001157 -.00049345  00000-0 -30968-2 0  9995,2 53546  53.2163  78.5391 0001452  63.0785  99.1013 15.08921151 14011,6917.632,95.432,540.502,538.493,0.0
53546.0,STARLINK-4477,PAYLOAD,2022-11-17 14:00:01,15.08850593,0.0001406,53.2149,77.0408,55.9283,117.8591,-0.0004961,-8.177e-05,0.0,0 STARLINK-4477,1 53546U 22101V   22321.58334491 -.00008177  00000-0 -49610-3 0  9994,2 53546  53.2149  77.0408 0001406  55.9283 117.8591 15.08850593 14065,6917.848000000001,95.437,540.686,538.74,0.0
53546.0,STARLINK-4477,PAYLOAD,2022-11-17 22:00:00,15.08880221,0.0001438,53.2147,75.5441,54.2084,131.1786,-0.0034099,-0.00054208,0.0,0 STARLINK-4477,1 53546U 22101V   22321.91667824 -.00054208  00000-0 -34099-2 0  9990,2 53546  53.2147  75.5441 0001438  54.2084 131.1786 15.08880221  1308,6917.757,95.435,540.617,538.628,0.0
53546.0,STARLINK-4477,PAYLOAD,2022-11-18 14:00:01,15.08841731,0.0001518,53.2149,72.5515,57.8673,150.7228,-0.00026693,-4.534e-05,0.0,0 STARLINK-4477,1 53546U 22101V   22322.58334491 -.00004534  00000-0 -26693-3 0  9994,2 53546  53.2149  72.5515 0001518  57.8673 150.7228 15.08841731  1302,6917.875,95.437,540.79,538.69,0.0
53546.0,STARLINK-4477,PAYLOAD,2022-11-18 22:00:00,15.08864109,0.0001501,53.2146,71.0546,56.6983,163.4857,-0.0010925999999999,-0.00017646,0.0,0 STARLINK-4477,1 53546U 22101V   22322.91667824 -.00017646  00000-0 -10926-2 0  9999,2 53546  53.2146  71.0546 0001501  56.6983 163.4857 15.08864109 14262,6917.807,95.436,540.71,538.633,0.0
53546.0,STARLINK-4477,PAYLOAD,2022-11-19 14:00:01,15.08841614,0.0001631,53.2147,68.0621,59.5011,183.917,0.00010682,1.412e-05,0.0,0 STARLINK-4477,1 53546U 22101V   22323.58334491  .00001412  00000-0  10682-3 0  9996,2 53546  53.2147  68.0621 0001631  59.5011 183.9170 15.08841614  1303,6917.875,95.437,540.869,538.612,0.0
53546.0,STARLINK-4477,PAYLOAD,2022-11-19 22:00:00,15.08875345,0.0001530999999999,53.2144,66.5651,57.4119,197.6016,-0.004167,-0.00066062,0.0,0 STARLINK-4477,1 53546U 22101V   22323.91667824 -.00066062  00000-0 -41670-2 0  9996,2 53546  53.2144  66.5651 0001531  57.4119 197.6016 15.08875345 14416,6917.772,95.435,540.696,538.578,0.0
53546.0,STARLINK-4477,PAYLOAD,2022-11-20 14:00:01,15.08821626,0.0001509,53.2146,63.5729,54.4406,223.7759,-0.00043641,-7.223e-05,0.0,0 STARLINK-4477,1 53546U 22101V   22324.58334491 -.00007223  00000-0 -43641-3 0  9996,2 53546  53.2146  63.5729 0001509  54.4406 223.7759 15.08821626 14522,6917.937,95.439,540.845,538.758,0.0
53546.0,STARLINK-4477,PAYLOAD,2022-11-20 22:00:00,15.0884122,0.0001437,53.2146,62.0758,52.1966,237.5853,-0.0016637,-0.00026669,0.0,0 STARLINK-4477,1 53546U 22101V   22324.91667824 -.00026669  00000-0 -16637-2 0  9991,2 53546  53.2146  62.0758 0001437  52.1966 237.5853 15.08841220  1306,6917.877,95.437,540.736,538.748,0.0
53546.0,STARLINK-4477,PAYLOAD,2022-11-21 06:00:00,15.08826351,0.0001384,53.2148,60.5783,60.1006,241.2706,0.0024455,0.00038832,0.0,0 STARLINK-4477,1 53546U 22101V   22325.25001157  .00038832  00000-0  24455-2 0  9990,2 53546  53.2148  60.5783 0001384  60.1006 241.2706 15.08826351 14620,6917.922,95.438,540.745,538.83,0.0
53546.0,STARLINK-4477,PAYLOAD,2022-11-21 14:00:01,15.08843929,0.0001585,53.215,59.0838,52.5429,260.4266,0.00062766,9.716e-05,0.0,0 STARLINK-4477,1 53546U 22101V   22325.58334491  .00009716  00000-0  62766-3 0  9993,2 53546  53.2150  59.0838 0001585  52.5429 260.4266 15.08843929  1309,6917.868,95.437,540.83,538.637,0.0
53546.0,STARLINK-4477,PAYLOAD,2022-11-21 22:00:00,15.08873566,0.0001565999999999,53.215,57.5865,51.887,272.6855,-0.0038146,-0.00060543,0.0,0 STARLINK-4477,1 53546U 22101V   22325.91667824 -.00060543  00000-0 -38146-2 0  9990,2 53546  53.2150  57.5865 0001566  51.8870 272.6855 15.08873566 14722,6917.778,95.435,540.726,538.559,0.0
53546.0,STARLINK-4477,PAYLOAD,2022-11-22 00:00:00,15.08844703,0.0001529,53.2152,57.2119,55.2043,2.2804,-0.00063696,-0.00010412,0.0,0 STARLINK-4477,1 53546U 22101V   22326.00001157 -.00010412  00000-0 -63696-3 0  9991,2 53546  53.2152  57.2119 0001529  55.2043   2.2804 15.08844703  1304,6917.866,95.437,540.789,538.673,0.0
53546.0,STARLINK-4477,PAYLOAD,2022-11-22 14:00:01,15.08820205,0.0001664,53.2155,54.5946,50.7803,297.0716,0.00042933,6.548e-05,0.0,0 STARLINK-4477,1 53546U 22101V   22326.58335648  .00006548  00000-0  42933-3 0  9993,2 53546  53.2155  54.5946 0001664  50.7803 297.0716 15.08820205 14827,6917.941,95.439,540.957,538.655,0.0
53546.0,STARLINK-4477,PAYLOAD,2022-11-22 22:00:00,15.08859777,0.0001531999999999,53.2156,53.0974,47.9804,311.3785,-0.0041169,-0.00065251,0.0,0 STARLINK-4477,1 53546U 22101V   22326.91667824 -.00065251  00000-0 -41169-2 0  9991,2 53546  53.2156  53.0974 0001532  47.9804 311.3785 15.08859777  1307,6917.82,95.436,540.745,538.625,0.0
53546.0,STARLINK-4477,PAYLOAD,2022-11-23 14:00:01,15.08812929,0.0001639,53.2161,50.1058,46.163,336.3588,0.0012495999999999,0.00019641,0.0,0 STARLINK-4477,1 53546U 22101V   22327.58334491  .00019641  00000-0  12496-2 0  9997,2 53546  53.2161  50.1058 0001639  46.1630 336.3588 15.08812929  1306,6917.9630000000025,95.439,540.962,538.694,0.0
53546.0,STARLINK-4477,PAYLOAD,2022-11-23 22:00:00,15.08845219,0.0001546,53.2162,48.6084,46.4684,347.6233,-0.0014199,-0.00022818,0.0,0 STARLINK-4477,1 53546U 22101V   22327.91667824 -.00022818  00000-0 -14199-2 0  9997,2 53546  53.2162  48.6084 0001546  46.4684 347.6233 15.08845219 15021,6917.864000000001,95.437,540.799,538.66,0.0
53546.0,STARLINK-4477,PAYLOAD,2022-11-24 00:00:00,15.08826972,0.0001471,53.2164,48.234,48.1517,78.8435,0.0010384,0.00016271,0.0,0 STARLINK-4477,1 53546U 22101V   22328.00001157  .00016271  00000-0  10384-2 0  9995,2 53546  53.2164  48.2340 0001471  48.1517  78.8435 15.08826972  1303,6917.92,95.438,540.803,538.768,0.0
53546.0,STARLINK-4477,PAYLOAD,2022-11-24 14:00:01,15.088390900000002,0.0001691,53.2164,45.6169,45.7295,11.555,0.0010125,0.00015862,0.0,0 STARLINK-4477,1 53546U 22101V   22328.58334491  .00015862  00000-0  10125-2 0  9996,2 53546  53.2164  45.6169 0001691  45.7295  11.5550 15.08839090 15125,6917.8830000000025,95.438,540.918,538.578,0.0
53546.0,STARLINK-4477,PAYLOAD,2022-11-24 22:00:00,15.08861322,0.000162,53.2163,44.1192,48.723,20.1652,-0.0029986,-0.00047723,0.0,0 STARLINK-4477,1 53546U 22101V   22328.91667824 -.00047723  00000-0 -29986-2 0  9990,2 53546  53.2163  44.1192 0001620  48.7230  20.1652 15.08861322  1305,6917.815,95.436,540.8009999999998,538.56,0.0
53546.0,STARLINK-4477,PAYLOAD,2022-11-25 06:00:00,15.08840544,0.000159,53.2165,42.6225,54.1313,26.3505,0.00057322,8.847e-05,0.0,0 STARLINK-4477,1 53546U 22101V   22329.25001157  .00008847  00000-0  57322-3 0  9997,2 53546  53.2165  42.6225 0001590  54.1313  26.3505 15.08840544 15220,6917.879,95.438,540.844,538.644,0.0
53546.0,STARLINK-4477,PAYLOAD,2022-11-25 14:00:01,15.0883516,0.0001746,53.2163,41.1278,46.8634,45.2254,0.0019448,0.00030795,0.0,0 STARLINK-4477,1 53546U 22101V   22329.58334491  .00030795  00000-0  19448-2 0  9996,2 53546  53.2163  41.1278 0001746  46.8634  45.2254 15.08835160  1300,6917.895,95.438,540.9680000000002,538.552,0.0
53546.0,STARLINK-4477,PAYLOAD,2022-11-26 00:00:00,15.08833376,0.0001506,53.216,39.2556,48.6787,147.9303,0.0012905,0.00020306,0.0,0 STARLINK-4477,1 53546U 22101V   22330.00001157  .00020306  00000-0  12905-2 0  9993,2 53546  53.2160  39.2556 0001506  48.6787 147.9303 15.08833376  1309,6917.901,95.438,540.807,538.724,0.0
